STARLINK-32079          
1 60336U 24136H   26068.43158369  .00000628  00000+0  33340-4 0  9997
2 60336  53.1607  76.9622 0001168  76.0991 284.0140 15.30194556 89625
2025-313BD              
1 67299U 25313BD  26068.62968741  .00081010  00000+0  27634-2 0  9995
2 67299  97.3970 145.2850 0007287 333.4514  26.6352 15.30002360 10838
